STARLINK-31419          
1 59368U 24060W   26147.15118331  .00000672  00000+0  33958-4 0  9992
2 59368  43.0006 176.6453 0001236 257.8664 102.2049 15.27579859122065
STARLINK-31583          
1 59369U 24060X   26147.04741619  .00000469  00000+0  26581-4 0  9990
2 59369  43.0031 166.3452 0001394 263.9649  96.1043 15.27577440122176
STARLINK-31461          
1 59370U 24060Y   26147.12436800  .00002329  00000+0  94141-4 0  9998
2 59370  42.9995 166.0582 0001377 262.5908  97.4787 15.27581791122128
RESURS-P 4              
1 59371U 24061A   26147.29750664  .00003625  00000+0  11983-3 0  9997
2 59371  97.2738  95.5636 0000673 101.3891 258.7427 15.31993548120563
STARLINK-31641          
1 59374U 24062A   26146.62003345  .00000522  00000+0  26591-4 0  9999
2 59374  53.1597 255.7691 0001024 109.8018 250.3095 15.34386532121568
STARLINK-31430          
1 59375U 24062B   26147.00002315 -.00006340  00000+0 -17674-3 0  9996
2 59375  53.1590 254.4258 0001202  74.0606   5.2525 15.34386589  5772
STARLINK-31695          
1 59376U 24062C   26147.27862539 -.00000905  00000+0 -18459-4 0  9992
2 59376  53.1604 250.6307 0001313 108.0015 252.1129 15.30183266121660
STARLINK-31716          
1 59377U 24062D   26147.18006992 -.00001139  00000+0 -26326-4 0  9998
2 59377  53.1592 202.4354 0001108  81.1941 278.9185 15.30203703122326
STARLINK-31710          
1 59378U 24062E   26147.33334491 -.00013724  00000+0 -40655-3 0  9997
2 59378  53.1602 250.4738 0001685  87.7753 164.0257 15.33560565  5871
STARLINK-31698          
1 59379U 24062F   26147.27545679  .00000805  00000+0  39308-4 0  9991
2 59379  53.1595 250.6292 0001164  77.4769 282.6362 15.30191186121661
STARLINK-31680          
1 59380U 24062G   26147.33334491  .00025872  00000+0  77464-3 0  9993
2 59380  53.1594 252.4995 0001213  93.2059 214.4014 15.34383022  5872
STARLINK-31713          
1 59381U 24062H   26147.00875022  .00000700  00000+0  31876-4 0  9999
2 59381  53.1619 253.9266 0001527  96.3108 263.8069 15.34385873121597
STARLINK-31705          
1 59382U 24062J   26147.28600997 -.00000856  00000+0 -16790-4 0  9999
2 59382  53.1607 250.6755 0001178  80.4000 279.7134 15.30187685121663
STARLINK-31715          
1 59384U 24062L   26147.26912557  .00000077  00000+0  14723-4 0  9994
2 59384  53.1609 250.5747 0000885  95.1537 264.9564 15.30184082121705
STARLINK-31717          
1 59385U 24062M   26147.33334491  .00034752  00000+0  10336-2 0  9999
2 59385  53.1608 250.4951 0001344  70.4811 170.4592 15.34440101  5820
STARLINK-31688          
1 59386U 24062N   26147.27560653 -.00001288  00000+0 -27019-4 0  9992
2 59386  53.1614 252.7475 0001192  89.2199 270.8940 15.34380610121630
STARLINK-31714          
1 59387U 24062P   26147.02223181 -.00000842  00000+0 -14261-4 0  9998
2 59387  53.1613 251.8733 0001463  91.5335 268.5835 15.33551216121612
STARLINK-31643          
1 59388U 24062Q   26147.33334491  .00044908  00000+0  13683-2 0  9994
2 59388  53.1612 250.4422 0001577  84.0464 183.8605 15.33556554  5826
STARLINK-31647          
1 59389U 24062R   26147.30393746 -.00007249  00000+0 -23259-3 0  9990
2 59389  53.1609 250.8217 0001978  82.6135 277.5091 15.30232428121707
STARLINK-31649          
1 59390U 24062S   26147.02052823 -.00000788  00000+0 -14490-4 0  9998
2 59390  53.1613 251.8616 0001269  95.3930 264.7216 15.30188192121665
STARLINK-31644          
1 59391U 24062T   26147.33334491  .00026572  00000+0  79531-3 0  9990
2 59391  53.1594 252.8437 0001325  99.0001  34.1861 15.34378552  5839
STARLINK-31626          
1 59392U 24062U   26147.26597198  .00012442  00000+0  43250-3 0  9998
2 59392  53.1609 250.5505 0001039 126.0385 234.0713 15.30125253121702
STARLINK-31443          
1 59393U 24062V   26146.63782312  .00001594  00000+0  58328-4 0  9992
2 59393  53.1612 240.0667 0001112 130.1564 229.9537 15.34382027121791
STARLINK-31607          
1 59394U 24062W   26147.33334491  .00019716  00000+0  67605-3 0  9994
2 59394  53.1595 250.3064 0000993  81.1025 255.5004 15.30199281  5878
YAOGAN-42 01            
1 59395U 24063A   26147.31551536  .00012231  00000+0  50680-3 0  9995
2 59395  34.9982 257.1025 0003223 142.0357 218.0586 15.23104128119662
STARLINK-31608          
1 59397U 24062X   26147.30182825  .00001231  00000+0  53689-4 0  9997
2 59397  53.1620 250.7706 0000719  85.4310 274.6773 15.30196908121650
STARLINK-31534          
1 59398U 24064A   26146.58803718  .00007989  00000+0  29987-3 0  9999
2 59398  43.0013 335.8757 0000965 275.0960  84.9782 15.27542649121089
STARLINK-31544          
1 59399U 24064B   26146.90098167  .00000752  00000+0  36859-4 0  9998
2 59399  43.0033 334.7852 0000904 273.7249  86.3499 15.27580737121186
STARLINK-31545          
1 59400U 24064C   26146.92653387 -.00000092  00000+0  61968-5 0  9992
2 59400  43.0023 334.1151 0001135 267.6360  92.4362 15.27583797121194
STARLINK-31507          
1 59401U 24064D   26146.54064134  .00002270  00000+0  91976-4 0  9997
2 59401  43.0020 336.3756 0001369 269.4352  90.6342 15.27578442121073
