OBJECT_NAME,OBJECT_ID,EPOCH,MEAN_MOTION,ECCENTRICITY,INCLINATION,RA_OF_ASC_NODE,ARG_OF_PERICENTER,MEAN_ANOMALY,EPHEMERIS_TYPE,CLASSIFICATION_TYPE,NORAD_CAT_ID,ELEMENT_SET_NO,REV_AT_EPOCH,BSTAR,MEAN_MOTION_DOT,MEAN_MOTION_DDOT
STARLINK-31419,2024-060W,2026-05-27T03:37:42.237984,15.27579859,.00012362,43.0006,176.6453,257.8664,102.2049,0,U,59368,999,12206,.33958061E-4,.672E-5,0
STARLINK-31583,2024-060X,2026-05-27T01:08:16.758816,15.27577440,.00013947,43.0031,166.3452,263.9649,96.1043,0,U,59369,999,12217,.2658101E-4,.469E-5,0
STARLINK-31461,2024-060Y,2026-05-27T02:59:05.395200,15.27581791,.00013773,42.9995,166.0582,262.5908,97.4787,0,U,59370,999,12212,.94140714E-4,.2329E-4,0
RESURS-P 4,2024-061A,2026-05-27T07:08:24.573696,15.31993548,.0000673,97.2738,95.5636,101.3891,258.7427,0,U,59371,999,12056,.11982551E-3,.3625E-4,0
STARLINK-31641,2024-062A,2026-05-26T14:52:50.890080,15.34386532,.0001024,53.1597,255.7691,109.8018,250.3095,0,U,59374,999,12156,.26590965E-4,.522E-5,0
STARLINK-31430,2024-062B,2026-05-27T00:00:02.000160,15.34386589,.00012025,53.1590,254.4258,74.0606,5.2525,0,U,59375,999,577,-.17674126E-3,-.634E-4,0
STARLINK-31695,2024-062C,2026-05-27T06:41:13.233696,15.30183266,.00013134,53.1604,250.6307,108.0015,252.1129,0,U,59376,999,12166,-.1845882E-4,-.905E-5,0
STARLINK-31716,2024-062D,2026-05-27T04:19:18.041088,15.30203703,.0001108,53.1592,202.4354,81.1941,278.9185,0,U,59377,999,12232,-.26325941E-4,-.1139E-4,0
STARLINK-31710,2024-062E,2026-05-27T08:00:01.000224,15.33560565,.00016853,53.1602,250.4738,87.7753,164.0257,0,U,59378,999,587,-.40654607E-3,-.13724E-3,0
STARLINK-31698,2024-062F,2026-05-27T06:36:39.466656,15.30191186,.00011648,53.1595,250.6292,77.4769,282.6362,0,U,59379,999,12166,.39308326E-4,.805E-5,0
STARLINK-31680,2024-062G,2026-05-27T08:00:01.000224,15.34383022,.00012131,53.1594,252.4995,93.2059,214.4014,0,U,59380,999,587,.77464065E-3,.25872E-3,0
STARLINK-31713,2024-062H,2026-05-27T00:12:36.019008,15.34385873,.00015271,53.1619,253.9266,96.3108,263.8069,0,U,59381,999,12159,.31876386E-4,.7E-5,0
STARLINK-31705,2024-062J,2026-05-27T06:51:51.261408,15.30187685,.00011783,53.1607,250.6755,80.4000,279.7134,0,U,59382,999,12166,-.16789517E-4,-.856E-5,0
STARLINK-31715,2024-062L,2026-05-27T06:27:32.449248,15.30184082,.00008859,53.1609,250.5747,95.1537,264.9564,0,U,59384,999,12170,.14722835E-4,.77E-6,0
STARLINK-31717,2024-062M,2026-05-27T08:00:01.000224,15.34440101,.00013444,53.1608,250.4951,70.4811,170.4592,0,U,59385,999,582,.10335982E-2,.34752E-3,0
STARLINK-31688,2024-062N,2026-05-27T06:36:52.404192,15.34380610,.00011928,53.1614,252.7475,89.2199,270.8940,0,U,59386,999,12163,-.27019087E-4,-.1288E-4,0
STARLINK-31714,2024-062P,2026-05-27T00:32:00.828384,15.33551216,.00014639,53.1613,251.8733,91.5335,268.5835,0,U,59387,999,12161,-.14261133E-4,-.842E-5,0
STARLINK-31643,2024-062Q,2026-05-27T08:00:01.000224,15.33556554,.00015777,53.1612,250.4422,84.0464,183.8605,0,U,59388,999,582,.13682723E-2,.44908E-3,0
STARLINK-31647,2024-062R,2026-05-27T07:17:40.196544,15.30232428,.00019784,53.1609,250.8217,82.6135,277.5091,0,U,59389,999,12170,-.23259316E-3,-.7249E-4,0
STARLINK-31649,2024-062S,2026-05-27T00:29:33.639072,15.30188192,.0001269,53.1613,251.8616,95.3930,264.7216,0,U,59390,999,12166,-.14489798E-4,-.788E-5,0
STARLINK-31644,2024-062T,2026-05-27T08:00:01.000224,15.34378552,.00013258,53.1594,252.8437,99.0001,34.1861,0,U,59391,999,583,.79531436E-3,.26572E-3,0
STARLINK-31626,2024-062U,2026-05-27T06:22:59.979072,15.30125253,.00010391,53.1609,250.5505,126.0385,234.0713,0,U,59392,999,12170,.43250117E-3,.12442E-3,0
STARLINK-31443,2024-062V,2026-05-26T15:18:27.917568,15.34382027,.00011129,53.1612,240.0667,130.1564,229.9537,0,U,59393,999,12179,.58327529E-4,.1594E-4,0
STARLINK-31607,2024-062W,2026-05-27T08:00:01.000224,15.30199281,.00009935,53.1595,250.3064,81.1025,255.5004,0,U,59394,999,587,.67604685E-3,.19716E-3,0
YAOGAN-42 01,2024-063A,2026-05-27T07:34:20.527104,15.23104128,.00032233,34.9982,257.1025,142.0357,218.0586,0,U,59395,999,11966,.50680269E-3,.12231E-3,0
STARLINK-31608,2024-062X,2026-05-27T07:14:37.960800,15.30196908,.00007199,53.1620,250.7706,85.4310,274.6773,0,U,59397,999,12165,.53688836E-4,.1231E-4,0
STARLINK-31534,2024-064A,2026-05-26T14:06:46.412352,15.27542649,.00009655,43.0013,335.8757,275.0960,84.9782,0,U,59398,999,12108,.29987081E-3,.7989E-4,0
STARLINK-31544,2024-064B,2026-05-26T21:37:24.816288,15.27580737,.0000904,43.0033,334.7852,273.7249,86.3499,0,U,59399,999,12118,.36859E-4,.752E-5,0
STARLINK-31545,2024-064C,2026-05-26T22:14:12.526368,15.27583797,.0001135,43.0023,334.1151,267.6360,92.4362,0,U,59400,999,12119,.61968E-5,-.92E-6,0
STARLINK-31507,2024-064D,2026-05-26T12:58:31.411776,15.27578442,.00013698,43.0020,336.3756,269.4352,90.6342,0,U,59401,999,12107,.91976032E-4,.227E-4,0
